{"type": "FeatureCollection", "features": [ {"type": "Feature", "properties": {"norad_id": 34910, "name": "COSMOS 2251 DEB", "group": "cosmos-2251-debris", "lat": 5.649970187277703, "lon": -87.65349053718958, "alt_km": 837.5551006506812, "timestamp": "2025-12-17T10:52:54.747798+00:00", "meta": {"OBJECT_NAME": "COSMOS 2251 DEB", "OBJECT_ID": "1993-036ADF", "EPOCH": "2025-12-16T00:48:30.580128", "MEAN_MOTION": 13.37690746, "ECCENTRICITY": 0.04679747, "INCLINATION": 73.876, "RA_OF_ASC_NODE": 96.2259, "ARG_OF_PERICENTER": 214.6056, "MEAN_ANOMALY": 328.1497, "EPHEMERIS_TYPE": 0, "CLASSIFICATION_TYPE": "U", "NORAD_CAT_ID": 34910, "ELEMENT_SET_NO": 999, "REV_AT_EPOCH": 81568, "BSTAR": 0.0011529423, "MEAN_MOTION_DOT": 1.118e-05, "MEAN_MOTION_DDOT": 0}, "tle": {"line1": "1 34910U 93036ADF 25350.03368727  .00001118  00000+0  11529-2 0  9999", "line2": "2 34910  73.8760  96.2259 0467974 214.6056 328.1497 13.37690746815682"}}, "geometry": {"type": "Point", "coordinates": [-87.65349053718958, 5.649970187277703]}}, {"type": "Feature", "properties": {"norad_id": 34911, "name": "COSMOS 2251 DEB", "group": "cosmos-2251-debris", "lat": -36.674640698327316, "lon": 68.06569819137299, "alt_km": 747.471188212694, "timestamp": "2025-12-17T10:52:54.747809+00:00", "meta": {"OBJECT_NAME": "COSMOS 2251 DEB", "OBJECT_ID": "1993-036ADG", "EPOCH": "2025-12-16T17:41:35.979072", "MEAN_MOTION": 14.5937892, "ECCENTRICITY": 0.00837784, "INCLINATION": 74.0408, "RA_OF_ASC_NODE": 237.1259, "ARG_OF_PERICENTER": 1.5152, "MEAN_ANOMALY": 56.2487, "EPHEMERIS_TYPE": 0, "CLASSIFICATION_TYPE": "U", "NORAD_CAT_ID": 34911, "ELEMENT_SET_NO": 999, "REV_AT_EPOCH": 88645, "BSTAR": 0.00013641579, "MEAN_MOTION_DOT": 6.46e-06, "MEAN_MOTION_DDOT": 0}, "tle": {"line1": "1 34911U 93036ADG 25350.73722198  .00000646  00000+0  13642-3 0  9997", "line2": "2 34911  74.0408 237.1259 0083778   1.5152  56.2487 14.59378920886450"}}, "geometry": {"type": "Point", "coordinates": [68.06569819137299, -36.674640698327316]}}, {"type": "Feature", "properties": {"norad_id": 34913, "name": "COSMOS 2251 DEB", "group": "cosmos-2251-debris", "lat": 16.5404004604791, "lon": 88.98099894750213, "alt_km": 787.7426076522779, "timestamp": "2025-12-17T10:52:54.747819+00:00", "meta": {"OBJECT_NAME": "COSMOS 2251 DEB", "OBJECT_ID": "1993-036ADJ", "EPOCH": "2025-12-16T13:10:35.646816", "MEAN_MOTION": 14.34638708, "ECCENTRICITY": 0.00204915, "INCLINATION": 74.0284, "RA_OF_ASC_NODE": 275.5168, "ARG_OF_PERICENTER": 24.3837, "MEAN_ANOMALY": 149.1171, "EPHEMERIS_TYPE": 0, "CLASSIFICATION_TYPE": "U", "NORAD_CAT_ID": 34913, "ELEMENT_SET_NO": 999, "REV_AT_EPOCH": 65242, "BSTAR": 4.394543e-05, "MEAN_MOTION_DOT": 9.8e-07, "MEAN_MOTION_DDOT": 0}, "tle": {"line1": "1 34913U 93036ADJ 25350.54902369  .00000098  00000+0  43945-4 0  9999", "line2": "2 34913  74.0284 275.5168 0020491  24.3837 149.1171 14.34638708652421"}}, "geometry": {"type": "Point", "coordinates": [88.98099894750213, 16.5404004604791]}}, {"type": "Feature", "properties": {"norad_id": 34918, "name": "COSMOS 2251 DEB", "group": "cosmos-2251-debris", "lat": 38.3618549329529, "lon": -42.300515318664786, "alt_km": 700.679125573487, "timestamp": "2025-12-17T10:52:54.747829+00:00", "meta": {"OBJECT_NAME": "COSMOS 2251 DEB", "OBJECT_ID": "1993-036ADP", "EPOCH": "2025-12-16T13:53:46.052736", "MEAN_MOTION": 14.61269295, "ECCENTRICITY": 0.00334369, "INCLINATION": 74.0708, "RA_OF_ASC_NODE": 306.3024, "ARG_OF_PERICENTER": 273.1328, "MEAN_ANOMALY": 208.8551, "EPHEMERIS_TYPE": 0, "CLASSIFICATION_TYPE": "U", "NORAD_CAT_ID": 34918, "ELEMENT_SET_NO": 999, "REV_AT_EPOCH": 65392, "BSTAR": 0.0014489759, "MEAN_MOTION_DOT": 7.183e-05, "MEAN_MOTION_DDOT": 0}, "tle": {"line1": "1 34918U 93036ADP 25350.57900524  .00007183  00000+0  14490-2 0  9991", "line2": "2 34918  74.0708 306.3024 0033436 273.1328 208.8551 14.61269295653925"}}, "geometry": {"type": "Point", "coordinates": [-42.300515318664786, 38.3618549329529]}}, {"type": "Feature", "properties": {"norad_id": 34924, "name": "COSMOS 2251 DEB", "group": "cosmos-2251-debris", "lat": 14.870482486827516, "lon": 84.81356576093313, "alt_km": 725.9687368873174, "timestamp": "2025-12-17T10:52:54.747839+00:00", "meta": {"OBJECT_NAME": "COSMOS 2251 DEB", "OBJECT_ID": "1993-036ADV", "EPOCH": "2025-12-15T23:11:46.077792", "MEAN_MOTION": 14.60064145, "ECCENTRICITY": 0.00541137, "INCLINATION": 74.0411, "RA_OF_ASC_NODE": 83.2915, "ARG_OF_PERICENTER": 167.1484, "MEAN_ANOMALY": 316.438, "EPHEMERIS_TYPE": 0, "CLASSIFICATION_TYPE": "U", "NORAD_CAT_ID": 34924, "ELEMENT_SET_NO": 999, "REV_AT_EPOCH": 87770, "BSTAR": 0.00064984297, "MEAN_MOTION_DOT": 3.158e-05, "MEAN_MOTION_DDOT": 0}, "tle": {"line1": "1 34924U 93036ADV 25349.96650553  .00003158  00000+0  64984-3 0  9995", "line2": "2 34924  74.0411  83.2915 0054113 167.1484 316.4380 14.60064145877709"}}, "geometry": {"type": "Point", "coordinates": [84.81356576093313, 14.870482486827516]}}, {"type": "Feature", "properties": {"norad_id": 34944, "name": "COSMOS 2251 DEB", "group": "cosmos-2251-debris", "lat": 59.53145710862125, "lon": -106.73851040070224, "alt_km": 681.3001312406886, "timestamp": "2025-12-17T10:52:54.747849+00:00", "meta": {"OBJECT_NAME": "COSMOS 2251 DEB", "OBJECT_ID": "1993-036ADX", "EPOCH": "2025-12-07T09:30:46.029312", "MEAN_MOTION": 14.14167925, "ECCENTRICITY": 0.02195348, "INCLINATION": 73.7495, "RA_OF_ASC_NODE": 241.6775, "ARG_OF_PERICENTER": 90.2413, "MEAN_ANOMALY": 272.3884, "EPHEMERIS_TYPE": 0, "CLASSIFICATION_TYPE": "U", "NORAD_CAT_ID": 34944, "ELEMENT_SET_NO": 999, "REV_AT_EPOCH": 64007, "BSTAR": 0.00099492053, "MEAN_MOTION_DOT": 2.364e-05, "MEAN_MOTION_DDOT": 0}, "tle": {"line1": "1 34944U 93036ADX 25341.39636608  .00002364  00000+0  99492-3 0  9991", "line2": "2 34944  73.7495 241.6775 0219534  90.2413 272.3884 14.14167925640077"}}, "geometry": {"type": "Point", "coordinates": [-106.73851040070224, 59.53145710862125]}}, {"type": "Feature", "properties": {"norad_id": 34946, "name": "COSMOS 2251 DEB", "group": "cosmos-2251-debris", "lat": -67.64570465573065, "lon": -162.75344452021773, "alt_km": 721.5659181445981, "timestamp": "2025-12-17T10:52:54.747859+00:00", "meta": {"OBJECT_NAME": "COSMOS 2251 DEB", "OBJECT_ID": "1993-036ADZ", "EPOCH": "2025-12-11T09:12:32.820480", "MEAN_MOTION": 14.61985522, "ECCENTRICITY": 0.0048688, "INCLINATION": 74.0237, "RA_OF_ASC_NODE": 344.7115, "ARG_OF_PERICENTER": 122.3418, "MEAN_ANOMALY": 238.2476, "EPHEMERIS_TYPE": 0, "CLASSIFICATION_TYPE": "U", "NORAD_CAT_ID": 34946, "ELEMENT_SET_NO": 999, "REV_AT_EPOCH": 88189, "BSTAR": 0.00095647955, "MEAN_MOTION_DOT": 4.849e-05, "MEAN_MOTION_DDOT": 0}, "tle": {"line1": "1 34946U 93036ADZ 25345.38371320  .00004849  00000+0  95648-3 0  9992", "line2": "2 34946  74.0237 344.7115 0048688 122.3418 238.2476 14.61985522881890"}}, "geometry": {"type": "Point", "coordinates": [-162.75344452021773, -67.64570465573065]}}, {"type": "Feature", "properties": {"norad_id": 34949, "name": "COSMOS 2251 DEB", "group": "cosmos-2251-debris", "lat": -4.142764376937763, "lon": 99.26008357460198, "alt_km": 671.3121082802982, "timestamp": "2025-12-17T10:52:54.747869+00:00", "meta": {"OBJECT_NAME": "COSMOS 2251 DEB", "OBJECT_ID": "1993-036AEC", "EPOCH": "2025-12-16T00:41:42.487008", "MEAN_MOTION": 14.74023339, "ECCENTRICITY": 0.00802648, "INCLINATION": 74.0185, "RA_OF_ASC_NODE": 103.231, "ARG_OF_PERICENTER": 247.8557, "MEAN_ANOMALY": 111.4083, "EPHEMERIS_TYPE": 0, "CLASSIFICATION_TYPE": "U", "NORAD_CAT_ID": 34949, "ELEMENT_SET_NO": 999, "REV_AT_EPOCH": 88410, "BSTAR": 0.00040106171, "MEAN_MOTION_DOT": 2.742e-05, "MEAN_MOTION_DDOT": 0}, "tle": {"line1": "1 34949U 93036AEC 25350.02896397  .00002742  00000+0  40106-3 0  9997", "line2": "2 34949  74.0185 103.2310 0080264 247.8557 111.4083 14.74023339884109"}}, "geometry": {"type": "Point", "coordinates": [99.26008357460198, -4.142764376937763]}}, {"type": "Feature", "properties": {"norad_id": 34953, "name": "COSMOS 2251 DEB", "group": "cosmos-2251-debris", "lat": -60.06657514185953, "lon": -131.91591268229377, "alt_km": 694.3303766386371, "timestamp": "2025-12-17T10:52:54.747880+00:00", "meta": {"OBJECT_NAME": "COSMOS 2251 DEB", "OBJECT_ID": "1993-036AEG", "EPOCH": "2025-12-16T19:51:46.776672", "MEAN_MOTION": 14.68994195, "ECCENTRICITY": 0.00582644, "INCLINATION": 74.0933, "RA_OF_ASC_NODE": 19.6036, "ARG_OF_PERICENTER": 10.4477, "MEAN_ANOMALY": 166.3322, "EPHEMERIS_TYPE": 0, "CLASSIFICATION_TYPE": "U", "NORAD_CAT_ID": 34953, "ELEMENT_SET_NO": 999, "REV_AT_EPOCH": 88188, "BSTAR": 0.00058319867, "MEAN_MOTION_DOT": 3.477e-05, "MEAN_MOTION_DDOT": 0}, "tle": {"line1": "1 34953U 93036AEG 25350.82762473  .00003477  00000+0  58320-3 0  9990", "line2": "2 34953  74.0933  19.6036 0058264  10.4477 166.3322 14.68994195881887"}}, "geometry": {"type": "Point", "coordinates": [-131.91591268229377, -60.06657514185953]}}, {"type": "Feature", "properties": {"norad_id": 34955, "name": "COSMOS 2251 DEB", "group": "cosmos-2251-debris", "lat": -13.788886842182732, "lon": 60.94899735003683, "alt_km": 587.8528548529739, "timestamp": "2025-12-17T10:52:54.747890+00:00", "meta": {"OBJECT_NAME": "COSMOS 2251 DEB", "OBJECT_ID": "1993-036AEJ", "EPOCH": "2025-12-11T10:00:38.398176", "MEAN_MOTION": 15.00495775, "ECCENTRICITY": 0.00779991, "INCLINATION": 74.0375, "RA_OF_ASC_NODE": 249.1952, "ARG_OF_PERICENTER": 319.1032, "MEAN_ANOMALY": 40.4318, "EPHEMERIS_TYPE": 0, "CLASSIFICATION_TYPE": "U", "NORAD_CAT_ID": 34955, "ELEMENT_SET_NO": 999, "REV_AT_EPOCH": 90014, "BSTAR": 0.0014966224, "MEAN_MOTION_DOT": 0.00020131, "MEAN_MOTION_DDOT": 0}, "tle": {"line1": "1 34955U 93036AEJ 25345.41711109  .00020131  00000+0  14966-2 0  9994", "line2": "2 34955  74.0375 249.1952 0077999 319.1032  40.4318 15.00495775900143"}}, "geometry": {"type": "Point", "coordinates": [60.94899735003683, -13.788886842182732]}}]}